[
    {
        "Altitude(m)": 556565.7936726648,
        "Argument of Periapsis(deg)": 0.026491964442854003,
        "Eccentricity": 0.0,
        "Inclination(deg)": 53.0,
        "Latitude(deg)": 38.17563085192722,
        "Longitude(deg)": -44.28634623283203,
        "Mean Anomaly(deg)": -230.54262852968964,
        "RAAN(deg)": 274.96057347411204,
        "Satellite Name": "Starlink Shell 1 1215",
        "Satellite Number": 1215,
        "Semi-Major Axis(m)": 6931778.249405717,
        "Time(s)": 760
    },
    {
        "Altitude(m)": 556482.424739169,
        "Argument of Periapsis(deg)": 0.02684054292236524,
        "Eccentricity": 0.0,
        "Inclination(deg)": 53.0,
        "Latitude(deg)": 37.76833381839276,
        "Longitude(deg)": -43.723028203529836,
        "Mean Anomaly(deg)": -229.91579732613295,
        "RAAN(deg)": 274.9600547040346,
        "Satellite Name": "Starlink Shell 1 1215",
        "Satellite Number": 1215,
        "Semi-Major Axis(m)": 6931778.249405717,
        "Time(s)": 770
    },
    {
        "Altitude(m)": 556399.1261496923,
        "Argument of Periapsis(deg)": 0.027189121401876473,
        "Eccentricity": 0.0,
        "Inclination(deg)": 53.0,
        "Latitude(deg)": 37.35794017244298,
        "Longitude(deg)": -43.16632445660863,
        "Mean Anomaly(deg)": -229.28896612257623,
        "RAAN(deg)": 274.9595359339571,
        "Satellite Name": "Starlink Shell 1 1215",
        "Satellite Number": 1215,
        "Semi-Major Axis(m)": 6931778.249405717,
        "Time(s)": 780
    },
    {
        "Altitude(m)": 556315.9531726888,
        "Argument of Periapsis(deg)": 0.02753769988138771,
        "Eccentricity": 0.0,
        "Inclination(deg)": 53.0,
        "Latitude(deg)": 36.94452735233103,
        "Longitude(deg)": -42.61611421914197,
        "Mean Anomaly(deg)": -228.66213491901948,
        "RAAN(deg)": 274.95901716387965,
        "Satellite Name": "Starlink Shell 1 1215",
        "Satellite Number": 1215,
        "Semi-Major Axis(m)": 6931778.249405717,
        "Time(s)": 790
    },
    {
        "Altitude(m)": 556232.9612222763,
        "Argument of Periapsis(deg)": 0.02788627836089895,
        "Eccentricity": 0.0,
        "Inclination(deg)": 53.0,
        "Latitude(deg)": 36.52817109274532,
        "Longitude(deg)": -42.0722773503152,
        "Mean Anomaly(deg)": -228.0353037154628,
        "RAAN(deg)": 274.95849839380213,
        "Satellite Name": "Starlink Shell 1 1215",
        "Satellite Number": 1215,
        "Semi-Major Axis(m)": 6931778.249405717,
        "Time(s)": 800
    },
    {
        "Altitude(m)": 556150.2058298087,
        "Argument of Periapsis(deg)": 0.02823485684041019,
        "Eccentricity": 0.0,
        "Inclination(deg)": 53.0,
        "Latitude(deg)": 36.108945452121354,
        "Longitude(deg)": -41.53469397702091,
        "Mean Anomaly(deg)": -227.40847251190607,
        "RAAN(deg)": 274.9579796237247,
        "Satellite Name": "Starlink Shell 1 1215",
        "Satellite Number": 1215,
        "Semi-Major Axis(m)": 6931778.249405717,
        "Time(s)": 810
    },
    {
        "Altitude(m)": 556067.7426153804,
        "Argument of Periapsis(deg)": 0.028583435319921423,
        "Eccentricity": 0.0,
        "Inclination(deg)": 53.0,
        "Latitude(deg)": 35.686922841160076,
        "Longitude(deg)": -41.00324411781805,
        "Mean Anomaly(deg)": -226.78164130834935,
        "RAAN(deg)": 274.9574608536472,
        "Satellite Name": "Starlink Shell 1 1215",
        "Satellite Number": 1215,
        "Semi-Major Axis(m)": 6931778.249405717,
        "Time(s)": 820
    },
    {
        "Altitude(m)": 555985.6272592057,
        "Argument of Periapsis(deg)": 0.028932013799432665,
        "Eccentricity": 0.0,
        "Inclination(deg)": 53.0,
        "Latitude(deg)": 35.262174052375336,
        "Longitude(deg)": -40.4778088087239,
        "Mean Anomaly(deg)": -226.1548101047926,
        "RAAN(deg)": 274.95694208356974,
        "Satellite Name": "Starlink Shell 1 1215",
        "Satellite Number": 1215,
        "Semi-Major Axis(m)": 6931778.249405717,
        "Time(s)": 830
    },
    {
        "Altitude(m)": 555903.9154729485,
        "Argument of Periapsis(deg)": 0.029280592278943897,
        "Eccentricity": 0.0,
        "Inclination(deg)": 53.0,
        "Latitude(deg)": 34.83476829051382,
        "Longitude(deg)": -39.95826970568624,
        "Mean Anomaly(deg)": -225.52797890123588,
        "RAAN(deg)": 274.9564233134923,
        "Satellite Name": "Starlink Shell 1 1215",
        "Satellite Number": 1215,
        "Semi-Major Axis(m)": 6931778.249405717,
        "Time(s)": 840
    },
    {
        "Altitude(m)": 555822.6629709903,
        "Argument of Periapsis(deg)": 0.029629170758455132,
        "Eccentricity": 0.0,
        "Inclination(deg)": 53.0,
        "Latitude(deg)": 34.4047732036966,
        "Longitude(deg)": -39.44450867718329,
        "Mean Anomaly(deg)": -224.90114769767925,
        "RAAN(deg)": 274.9559045434148,
        "Satellite Name": "Starlink Shell 1 1215",
        "Satellite Number": 1215,
        "Semi-Major Axis(m)": 6931778.249405717,
        "Time(s)": 850
    },
    {
        "Altitude(m)": 555741.9254416144,
        "Argument of Periapsis(deg)": 0.02997774923796637,
        "Eccentricity": 0.0,
        "Inclination(deg)": 53.0,
        "Latitude(deg)": 33.97225491514318,
        "Longitude(deg)": -38.93640906847705,
        "Mean Anomaly(deg)": -224.27431649412247,
        "RAAN(deg)": 274.9553857733373,
        "Satellite Name": "Starlink Shell 1 1215",
        "Satellite Number": 1215,
        "Semi-Major Axis(m)": 6931778.249405717,
        "Time(s)": 860
    },
    {
        "Altitude(m)": 555661.7585182099,
        "Argument of Periapsis(deg)": 0.030326327717477602,
        "Eccentricity": 0.0,
        "Inclination(deg)": 53.0,
        "Latitude(deg)": 33.53727805535791,
        "Longitude(deg)": -38.43385443564426,
        "Mean Anomaly(deg)": -223.6474852905658,
        "RAAN(deg)": 274.9548670032599,
        "Satellite Name": "Starlink Shell 1 1215",
        "Satellite Number": 1215,
        "Semi-Major Axis(m)": 6931778.249405717,
        "Time(s)": 870
    },
    {
        "Altitude(m)": 555582.2177504167,
        "Argument of Periapsis(deg)": 0.030674906196988847,
        "Eccentricity": 0.0,
        "Inclination(deg)": 53.0,
        "Latitude(deg)": 33.09990579465618,
        "Longitude(deg)": -37.93672979281367,
        "Mean Anomaly(deg)": -223.02065408700906,
        "RAAN(deg)": 274.9543482331824,
        "Satellite Name": "Starlink Shell 1 1215",
        "Satellite Number": 1215,
        "Semi-Major Axis(m)": 6931778.249405717,
        "Time(s)": 880
    },
    {
        "Altitude(m)": 555503.3585752901,
        "Argument of Periapsis(deg)": 0.031023484676500086,
        "Eccentricity": 0.0,
        "Inclination(deg)": 53.0,
        "Latitude(deg)": 32.6601998759323,
        "Longitude(deg)": -37.44492117069401,
        "Mean Anomaly(deg)": -222.39382288345237,
        "RAAN(deg)": 274.95382946310485,
        "Satellite Name": "Starlink Shell 1 1215",
        "Satellite Number": 1215,
        "Semi-Major Axis(m)": 6931778.249405717,
        "Time(s)": 890
    },
    {
        "Altitude(m)": 555425.2362884459,
        "Argument of Periapsis(deg)": 0.03137206315601132,
        "Eccentricity": 0.0,
        "Inclination(deg)": 53.0,
        "Latitude(deg)": 32.21822064756872,
        "Longitude(deg)": -36.95831516784558,
        "Mean Anomaly(deg)": -221.76699167989563,
        "RAAN(deg)": 274.95331069302745,
        "Satellite Name": "Starlink Shell 1 1215",
        "Satellite Number": 1215,
        "Semi-Major Axis(m)": 6931778.249405717,
        "Time(s)": 900
    },
    {
        "Altitude(m)": 555347.9060152676,
        "Argument of Periapsis(deg)": 0.03172064163552255,
        "Eccentricity": 0.0,
        "Inclination(deg)": 53.0,
        "Latitude(deg)": 31.77402709639995,
        "Longitude(deg)": -36.47680000803604,
        "Mean Anomaly(deg)": -221.1401604763389,
        "RAAN(deg)": 274.95279192295,
        "Satellite Name": "Starlink Shell 1 1215",
        "Satellite Number": 1215,
        "Semi-Major Axis(m)": 6931778.249405717,
        "Time(s)": 910
    },
    {
        "Altitude(m)": 555271.4226821191,
        "Argument of Periapsis(deg)": 0.0320692201150338,
        "Eccentricity": 0.0,
        "Inclination(deg)": 53.0,
        "Latitude(deg)": 31.327676880655112,
        "Longitude(deg)": -36.000265078377986,
        "Mean Anomaly(deg)": -220.5133292727822,
        "RAAN(deg)": 274.95227315287246,
        "Satellite Name": "Starlink Shell 1 1215",
        "Satellite Number": 1215,
        "Semi-Major Axis(m)": 6931778.249405717,
        "Time(s)": 920
    },
    {
        "Altitude(m)": 555195.8409876223,
        "Argument of Periapsis(deg)": 0.032417798594545036,
        "Eccentricity": 0.0,
        "Inclination(deg)": 53.0,
        "Latitude(deg)": 30.879226362806264,
        "Longitude(deg)": -35.52860046154728,
        "Mean Anomaly(deg)": -219.88649806922547,
        "RAAN(deg)": 274.95175438279506,
        "Satellite Name": "Starlink Shell 1 1215",
        "Satellite Number": 1215,
        "Semi-Major Axis(m)": 6931778.249405717,
        "Time(s)": 930
    },
    {
        "Altitude(m)": 555121.215374006,
        "Argument of Periapsis(deg)": 0.03276637707405627,
        "Eccentricity": 0.0,
        "Inclination(deg)": 53.0,
        "Latitude(deg)": 30.428730642257438,
        "Longitude(deg)": -35.061697975359046,
        "Mean Anomaly(deg)": -219.2596668656688,
        "RAAN(deg)": 274.95123561271754,
        "Satellite Name": "Starlink Shell 1 1215",
        "Satellite Number": 1215,
        "Semi-Major Axis(m)": 6931778.249405717,
        "Time(s)": 940
    }
]